0 FENGYUN 1C DEB
1 38727U 99025ETU 13282.03961071  .00001282  00000-0  10266-2 0   648
2 38727 098.6364 127.9936 0122848 287.5383 229.3365 13.89075069102385
0 FENGYUN 1C DEB
1 38727U 99025ETU 13283.04740473  .00001320  00000-0  10562-2 0   654
2 38727 098.6356 128.9274 0122624 284.7653 228.9738 13.89076495102522
0 FENGYUN 1C DEB
1 38727U 99025ETU 13291.04388047  .00001481  00000-0  11813-2 0   667
2 38727 098.6340 136.3450 0122006 262.7832 257.1177 13.89102542103630
